[{"OBJECT_NAME":"STARLINK-33758","OBJECT_ID":"2025-101L","EPOCH":"2026-03-08T20:04:55.124832","MEAN_MOTION":15.27581192,"ECCENTRICITY":5.078e-5,"INCLINATION":43.0012,"RA_OF_ASC_NODE":2.8821,"ARG_OF_PERICENTER":258.3313,"MEAN_ANOMALY":101.7481,"EPHEMERIS_TYPE":0,"CLASSIFICATION_TYPE":"U","NORAD_CAT_ID":64004,"ELEMENT_SET_NO":999,"REV_AT_EPOCH":4692,"BSTAR":0.0015990439,"MEAN_MOTION_DOT":0.00044004,"MEAN_MOTION_DDOT":0},{"OBJECT_NAME":"CZ-6A DEB","OBJECT_ID":"2022-151NB","EPOCH":"2026-03-09T18:26:17.609568","MEAN_MOTION":15.22372787,"ECCENTRICITY":0.00267955,"INCLINATION":98.6489,"RA_OF_ASC_NODE":154.0342,"ARG_OF_PERICENTER":180.4296,"MEAN_ANOMALY":179.6918,"EPHEMERIS_TYPE":0,"CLASSIFICATION_TYPE":"U","NORAD_CAT_ID":54601,"ELEMENT_SET_NO":999,"REV_AT_EPOCH":17694,"BSTAR":0.011449911,"MEAN_MOTION_DOT":0.00276508,"MEAN_MOTION_DDOT":0}]
